CCSDS_OMM_VERS = 2.0
CREATION_DATE  = 
ORIGINATOR     = 

OBJECT_NAME    = STARLINK-35325
OBJECT_ID      = 2025-235Y
CENTER_NAME    = EARTH
REF_FRAME      = TEME
TIME_SYSTEM    = UTC
MEAN_ELEMENT_THEORY = SGP/SGP4

EPOCH          = 2025-11-13T16:21:08.435232
MEAN_MOTION    = 15.49285528
ECCENTRICITY   = .0001126
INCLINATION    = 53.1596
RA_OF_ASC_NODE = 65.9822
ARG_OF_PERICENTER = 116.1181
MEAN_ANOMALY   = 243.9944

EPHEMERIS_TYPE = 0
CLASSIFICATION_TYPE = U
NORAD_CAT_ID   = 66080
ELEMENT_SET_NO = 999
REV_AT_EPOCH   = 513
BSTAR          = .23189E-2
MEAN_MOTION_DOT = .130588E-2
MEAN_MOTION_DDOT = 0

CCSDS_OMM_VERS = 2.0
CREATION_DATE  = 
ORIGINATOR     = 

OBJECT_NAME    = STARLINK-35403
OBJECT_ID      = 2025-235Z
CENTER_NAME    = EARTH
REF_FRAME      = TEME
TIME_SYSTEM    = UTC
MEAN_ELEMENT_THEORY = SGP/SGP4

EPOCH          = 2025-11-13T16:19:08.607936
MEAN_MOTION    = 15.49335561
ECCENTRICITY   = .0001365
INCLINATION    = 53.1596
RA_OF_ASC_NODE = 65.9751
ARG_OF_PERICENTER = 110.6722
MEAN_ANOMALY   = 249.4433

EPHEMERIS_TYPE = 0
CLASSIFICATION_TYPE = U
NORAD_CAT_ID   = 66081
ELEMENT_SET_NO = 999
REV_AT_EPOCH   = 513
BSTAR          = .2861E-2
MEAN_MOTION_DOT = .162165E-2
MEAN_MOTION_DDOT = 0

CCSDS_OMM_VERS = 2.0
CREATION_DATE  = 
ORIGINATOR     = 

OBJECT_NAME    = STARLINK-35011
OBJECT_ID      = 2025-235AA
CENTER_NAME    = EARTH
REF_FRAME      = TEME
TIME_SYSTEM    = UTC
MEAN_ELEMENT_THEORY = SGP/SGP4

EPOCH          = 2025-11-13T16:19:39.837216
MEAN_MOTION    = 15.49288133
ECCENTRICITY   = .0001029
INCLINATION    = 53.1603
RA_OF_ASC_NODE = 65.9753
ARG_OF_PERICENTER = 123.5786
MEAN_ANOMALY   = 236.5321

EPHEMERIS_TYPE = 0
CLASSIFICATION_TYPE = U
NORAD_CAT_ID   = 66082
ELEMENT_SET_NO = 999
REV_AT_EPOCH   = 513
BSTAR          = .33859E-2
MEAN_MOTION_DOT = .192429E-2
MEAN_MOTION_DDOT = 0

CCSDS_OMM_VERS = 2.0
CREATION_DATE  = 
ORIGINATOR     = 

OBJECT_NAME    = STARLINK-35291
OBJECT_ID      = 2025-235AB
CENTER_NAME    = EARTH
REF_FRAME      = TEME
TIME_SYSTEM    = UTC
MEAN_ELEMENT_THEORY = SGP/SGP4

EPOCH          = 2025-11-13T16:18:38.253024
MEAN_MOTION    = 15.49325373
ECCENTRICITY   = .0000766
INCLINATION    = 53.1598
RA_OF_ASC_NODE = 65.9709
ARG_OF_PERICENTER = 125.3820
MEAN_ANOMALY   = 234.7261

EPHEMERIS_TYPE = 0
CLASSIFICATION_TYPE = U
NORAD_CAT_ID   = 66083
ELEMENT_SET_NO = 999
REV_AT_EPOCH   = 510
BSTAR          = .15215E-2
MEAN_MOTION_DOT = .85148E-3
MEAN_MOTION_DDOT = 0

CCSDS_OMM_VERS = 2.0
CREATION_DATE  = 
ORIGINATOR     = 

OBJECT_NAME    = STARLINK-35379
OBJECT_ID      = 2025-235AC
CENTER_NAME    = EARTH
REF_FRAME      = TEME
TIME_SYSTEM    = UTC
MEAN_ELEMENT_THEORY = SGP/SGP4

EPOCH          = 2025-11-13T13:12:22.557312
MEAN_MOTION    = 15.49286200
ECCENTRICITY   = .0001076
INCLINATION    = 53.1599
RA_OF_ASC_NODE = 66.5852
ARG_OF_PERICENTER = 87.9372
MEAN_ANOMALY   = 272.1761

EPHEMERIS_TYPE = 0
CLASSIFICATION_TYPE = U
NORAD_CAT_ID   = 66084
ELEMENT_SET_NO = 999
REV_AT_EPOCH   = 511
BSTAR          = .13784E-2
MEAN_MOTION_DOT = .76907E-3
MEAN_MOTION_DDOT = 0

CCSDS_OMM_VERS = 2.0
CREATION_DATE  = 
ORIGINATOR     = 

OBJECT_NAME    = STARLINK-35370
OBJECT_ID      = 2025-235AD
CENTER_NAME    = EARTH
REF_FRAME      = TEME
TIME_SYSTEM    = UTC
MEAN_ELEMENT_THEORY = SGP/SGP4

EPOCH          = 2025-11-13T16:17:40.629408
MEAN_MOTION    = 15.49281309
ECCENTRICITY   = .0001214
INCLINATION    = 53.1596
RA_OF_ASC_NODE = 65.9657
ARG_OF_PERICENTER = 119.2996
MEAN_ANOMALY   = 240.8135

EPHEMERIS_TYPE = 0
CLASSIFICATION_TYPE = U
NORAD_CAT_ID   = 66085
ELEMENT_SET_NO = 999
REV_AT_EPOCH   = 510
BSTAR          = .19967E-2
MEAN_MOTION_DOT = .112095E-2
MEAN_MOTION_DDOT = 0

CCSDS_OMM_VERS = 2.0
CREATION_DATE  = 
ORIGINATOR     = 

OBJECT_NAME    = STARLINK-35596
OBJECT_ID      = 2025-236A
CENTER_NAME    = EARTH
REF_FRAME      = TEME
TIME_SYSTEM    = UTC
MEAN_ELEMENT_THEORY = SGP/SGP4

EPOCH          = 2025-11-13T18:00:02.998944
MEAN_MOTION    = 15.53243929
ECCENTRICITY   = .0001241
INCLINATION    = 53.1589
RA_OF_ASC_NODE = 284.4273
ARG_OF_PERICENTER = 81.6810
MEAN_ANOMALY   = 337.5518

EPHEMERIS_TYPE = 0
CLASSIFICATION_TYPE = U
NORAD_CAT_ID   = 66086
ELEMENT_SET_NO = 999
REV_AT_EPOCH   = 521
BSTAR          = -.35741E-1
MEAN_MOTION_DOT = -.2041371E-1
MEAN_MOTION_DDOT = 0

CCSDS_OMM_VERS = 2.0
CREATION_DATE  = 
ORIGINATOR     = 

OBJECT_NAME    = STARLINK-35563
OBJECT_ID      = 2025-236B
CENTER_NAME    = EARTH
REF_FRAME      = TEME
TIME_SYSTEM    = UTC
MEAN_ELEMENT_THEORY = SGP/SGP4

EPOCH          = 2025-11-13T18:00:02.998944
MEAN_MOTION    = 15.53246088
ECCENTRICITY   = .0001153
INCLINATION    = 53.1591
RA_OF_ASC_NODE = 284.4232
ARG_OF_PERICENTER = 83.3776
MEAN_ANOMALY   = 337.7728

EPHEMERIS_TYPE = 0
CLASSIFICATION_TYPE = U
NORAD_CAT_ID   = 66087
ELEMENT_SET_NO = 999
REV_AT_EPOCH   = 515
BSTAR          = -.35847E-1
MEAN_MOTION_DOT = -.2046847E-1
MEAN_MOTION_DDOT = 0

CCSDS_OMM_VERS = 2.0
CREATION_DATE  = 
ORIGINATOR     = 

OBJECT_NAME    = STARLINK-35461
OBJECT_ID      = 2025-236C
CENTER_NAME    = EARTH
REF_FRAME      = TEME
TIME_SYSTEM    = UTC
MEAN_ELEMENT_THEORY = SGP/SGP4

EPOCH          = 2025-11-13T18:00:02.998944
MEAN_MOTION    = 15.53248452
ECCENTRICITY   = .0001242
INCLINATION    = 53.1590
RA_OF_ASC_NODE = 284.4164
ARG_OF_PERICENTER = 83.8184
MEAN_ANOMALY   = 341.1633

EPHEMERIS_TYPE = 0
CLASSIFICATION_TYPE = U
NORAD_CAT_ID   = 66088
ELEMENT_SET_NO = 999
REV_AT_EPOCH   = 515
BSTAR          = -.3588E-1
MEAN_MOTION_DOT = -.2048754E-1
MEAN_MOTION_DDOT = 0

CCSDS_OMM_VERS = 2.0
CREATION_DATE  = 
ORIGINATOR     = 

OBJECT_NAME    = STARLINK-35571
OBJECT_ID      = 2025-236D
CENTER_NAME    = EARTH
REF_FRAME      = TEME
TIME_SYSTEM    = UTC
MEAN_ELEMENT_THEORY = SGP/SGP4

EPOCH          = 2025-11-13T18:00:02.998944
MEAN_MOTION    = 15.53245069
ECCENTRICITY   = .0001186
INCLINATION    = 53.1589
RA_OF_ASC_NODE = 284.4196
ARG_OF_PERICENTER = 88.0949
MEAN_ANOMALY   = 334.9727

EPHEMERIS_TYPE = 0
CLASSIFICATION_TYPE = U
NORAD_CAT_ID   = 66089
ELEMENT_SET_NO = 999
REV_AT_EPOCH   = 521
BSTAR          = -.35825E-1
MEAN_MOTION_DOT = -.2045659E-1
MEAN_MOTION_DDOT = 0

CCSDS_OMM_VERS = 2.0
CREATION_DATE  = 
ORIGINATOR     = 

OBJECT_NAME    = STARLINK-35570
OBJECT_ID      = 2025-236E
CENTER_NAME    = EARTH
REF_FRAME      = TEME
TIME_SYSTEM    = UTC
MEAN_ELEMENT_THEORY = SGP/SGP4

EPOCH          = 2025-11-13T18:00:02.998944
MEAN_MOTION    = 15.53247987
ECCENTRICITY   = .0001232
INCLINATION    = 53.1588
RA_OF_ASC_NODE = 284.4128
ARG_OF_PERICENTER = 80.2243
MEAN_ANOMALY   = 346.6749

EPHEMERIS_TYPE = 0
CLASSIFICATION_TYPE = U
NORAD_CAT_ID   = 66090
ELEMENT_SET_NO = 999
REV_AT_EPOCH   = 521
BSTAR          = -.3588E-1
MEAN_MOTION_DOT = -.2048682E-1
MEAN_MOTION_DDOT = 0

CCSDS_OMM_VERS = 2.0
CREATION_DATE  = 
ORIGINATOR     = 

OBJECT_NAME    = STARLINK-35532
OBJECT_ID      = 2025-236F
CENTER_NAME    = EARTH
REF_FRAME      = TEME
TIME_SYSTEM    = UTC
MEAN_ELEMENT_THEORY = SGP/SGP4

EPOCH          = 2025-11-13T18:00:02.998944
MEAN_MOTION    = 15.53249308
ECCENTRICITY   = .0001161
INCLINATION    = 53.1589
RA_OF_ASC_NODE = 284.4087
ARG_OF_PERICENTER = 80.4243
MEAN_ANOMALY   = 348.3911

EPHEMERIS_TYPE = 0
CLASSIFICATION_TYPE = U
NORAD_CAT_ID   = 66091
ELEMENT_SET_NO = 999
REV_AT_EPOCH   = 521
BSTAR          = -.35897E-1
MEAN_MOTION_DOT = -.2049621E-1
MEAN_MOTION_DDOT = 0

