STARLINK-35325          
1 66080U 25235Y   25317.68134763  .00130588  00000+0  23189-2 0  9992
2 66080  53.1596  65.9822 0001126 116.1181 243.9944 15.49285528  5135
STARLINK-35403          
1 66081U 25235Z   25317.67996074  .00162165  00000+0  28610-2 0  9993
2 66081  53.1596  65.9751 0001365 110.6722 249.4433 15.49335561  5139
STARLINK-35011          
1 66082U 25235AA  25317.68032219  .00192429  00000+0  33859-2 0  9994
2 66082  53.1603  65.9753 0001029 123.5786 236.5321 15.49288133  5136
STARLINK-35291          
1 66083U 25235AB  25317.67960941  .00085148  00000+0  15215-2 0  9991
2 66083  53.1598  65.9709 0000766 125.3820 234.7261 15.49325373  5105
STARLINK-35379          
1 66084U 25235AC  25317.55026108  .00076907  00000+0  13784-2 0  9999
2 66084  53.1599  66.5852 0001076  87.9372 272.1761 15.49286200  5110
STARLINK-35370          
1 66085U 25235AD  25317.67894247  .00112095  00000+0  19967-2 0  9998
2 66085  53.1596  65.9657 0001214 119.2996 240.8135 15.49281309  5100
STARLINK-35596          
1 66086U 25236A   25317.75003471 -.02041371  00000+0 -35741-1 0  9999
2 66086  53.1589 284.4273 0001241  81.6810 337.5518 15.53243929  5214
STARLINK-35563          
1 66087U 25236B   25317.75003471 -.02046847  00000+0 -35847-1 0  9990
2 66087  53.1591 284.4232 0001153  83.3776 337.7728 15.53246088  5152
STARLINK-35461          
1 66088U 25236C   25317.75003471 -.02048754  00000+0 -35880-1 0  9997
2 66088  53.1590 284.4164 0001242  83.8184 341.1633 15.53248452  5154
STARLINK-35571          
1 66089U 25236D   25317.75003471 -.02045659  00000+0 -35825-1 0  9998
2 66089  53.1589 284.4196 0001186  88.0949 334.9727 15.53245069  5213
STARLINK-35570          
1 66090U 25236E   25317.75003471 -.02048682  00000+0 -35880-1 0  9990
2 66090  53.1588 284.4128 0001232  80.2243 346.6749 15.53247987  5217
STARLINK-35532          
1 66091U 25236F   25317.75003471 -.02049621  00000+0 -35897-1 0  9993
2 66091  53.1589 284.4087 0001161  80.4243 348.3911 15.53249308  5215
